[{"zip":"01095","city":"Wilbraham"},{"zip":"01202","city":"Framingham"},{"zip":"01301","city":"Greenfield"},{"zip":"01507","city":"Charlton"},{"zip":"01518","city":"Sturbridge"},{"zip":"01520","city":"Holden"},{"zip":"01532","city":"Northborough"},{"zip":"01536","city":"West Grafton"},{"zip":"01545","city":"Shrewsbury"},{"zip":"01568","city":"Upton"},{"zip":"01569","city":"Uxbridge"},{"zip":"01581","city":"Westborough"},{"zip":"01588","city":"Whitinsville"},{"zip":"01590","city":"Sutton"},{"zip":"01701","city":"Framingham"},{"zip":"01702","city":"Framingham"},{"zip":"01720","city":"Acton"},{"zip":"01721","city":"Ashland"},{"zip":"01746","city":"Holliston"},{"zip":"01747","city":"Hopedale"},{"zip":"01748","city":"Hopkinton"},{"zip":"01749","city":"Hudson"},{"zip":"01752","city":"Marlborough"},{"zip":"01754","city":"Maynard"},{"zip":"01757","city":"Milford"},{"zip":"01760","city":"Natick"},{"zip":"01770","city":"Sherborn"},{"zip":"01772","city":"Southboro"},{"zip":"01773","city":"Lincoln"},{"zip":"01775","city":"Stow"},{"zip":"01776","city":"Sudbury"},{"zip":"01778","city":"Wayland"},{"zip":"01844","city":"Methuen"},{"zip":"01880","city":"Wakefield \r\nWakefield"},{"zip":"01960","city":"Peabody"},{"zip":"02013","city":"Medway"},{"zip":"02026","city":"Dedham"},{"zip":"02030","city":"Dover"},{"zip":"02038","city":"Franklin"},{"zip":"02052","city":"Medfield"},{"zip":"02053","city":"Medway"},{"zip":"02054","city":"Millis"},{"zip":"02062","city":"Norwood"},{"zip":"02090","city":"Westwood"},{"zip":"02119","city":"Roxbury"},{"zip":"02121","city":"Boston"},{"zip":"02132","city":"West Roxbury"},{"zip":"02134","city":"Allston"},{"zip":"02135","city":"Brighton"},{"zip":"02136","city":"Hyde Park"},{"zip":"02141","city":"Cambridge"},{"zip":"02148","city":"Malden"},{"zip":"02151","city":"Revere"},{"zip":"02184","city":"Braintree"},{"zip":"02302","city":"Brockton"},{"zip":"02346","city":"Middleboro"},{"zip":"02360","city":"Plymouth"},{"zip":"02418","city":"Malden"},{"zip":"02421","city":"Lexington"},{"zip":"02452","city":"Waltham"},{"zip":"02453","city":"Watham"},{"zip":"02459","city":"Newton Centre"},{"zip":"02465","city":"West Newton"},{"zip":"02466","city":"Newton"},{"zip":"02467","city":"Chesnut Hill"},{"zip":"02472","city":"Watertown"},{"zip":"02474","city":"Arlington"},{"zip":"02476","city":"Arlington"},{"zip":"02478","city":"Belmont"},{"zip":"02481","city":"Wellesley"},{"zip":"02482","city":"Wellesley"},{"zip":"02492","city":"Needham"},{"zip":"02493","city":"Weston"},{"zip":"02494","city":"Needham"},{"zip":"02557","city":"Oak Bluffs"},{"zip":"02780","city":"Taunton"},{"zip":"02904","city":"North Providence"},{"zip":"02910","city":"Cranston"},{"zip":"03051","city":"Hudson"},{"zip":"03063","city":"Nashua"},{"zip":"03836","city":"Freedom"},{"zip":"06457","city":"Middltown"},{"zip":"19001","city":"Abington"}]